{
  "type": "FeatureCollection",
  "features": [
    {
      "type": "Feature",
      "properties": {
        "norad_id": 25590,
        "name": "COSMOS 2361",
        "group": "musson",
        "lat": -55.08690562477156,
        "lon": 171.4835105612244,
        "alt_km": 974.0973807909122,
        "timestamp": "2025-12-16T13:52:37.793083+00:00",
        "meta_object_name": "COSMOS 2361",
        "meta_object_id": "1998-076A",
        "meta_epoch": "2025-12-15T23:01:27.638688",
        "meta_mean_motion": 13.73217889,
        "meta_eccentricity": 0.00300759,
        "meta_inclination": 82.934,
        "meta_ra_of_asc_node": 341.7049,
        "meta_arg_of_pericenter": 256.2718,
        "meta_mean_anomaly": 161.7871,
        "meta_ephemeris_type": 0,
        "meta_classification_type": "U",
        "meta_norad_cat_id": 25590,
        "meta_element_set_no": 999,
        "meta_rev_at_epoch": 35155,
        "meta_bstar": 7.1702522e-05,
        "meta_mean_motion_dot": 8.1e-07,
        "meta_mean_motion_ddot": 0,
        "tle_line1": "1 25590U 98076A   25349.95934767  .00000081  00000+0  71703-4 0  9994",
        "tle_line2": "2 25590  82.9340 341.7049 0030075 256.2718 161.7871 13.73217889351552"
      },
      "geometry": {
        "type": "Point",
        "coordinates": [
          171.4835105612244,
          -55.08690562477156
        ]
      }
    },
    {
      "type": "Feature",
      "properties": {
        "norad_id": 26818,
        "name": "COSMOS 2378",
        "group": "musson",
        "lat": -38.30024659840296,
        "lon": -8.74799628099435,
        "alt_km": 1005.6383302906697,
        "timestamp": "2025-12-16T13:52:37.793105+00:00",
        "meta_object_name": "COSMOS 2378",
        "meta_object_id": "2001-023A",
        "meta_epoch": "2025-12-15T19:41:11.148288",
        "meta_mean_motion": 13.74142207,
        "meta_eccentricity": 0.00325815,
        "meta_inclination": 82.9272,
        "meta_ra_of_asc_node": 357.4406,
        "meta_arg_of_pericenter": 196.1914,
        "meta_mean_anomaly": 337.571,
        "meta_ephemeris_type": 0,
        "meta_classification_type": "U",
        "meta_norad_cat_id": 26818,
        "meta_element_set_no": 999,
        "meta_rev_at_epoch": 22965,
        "meta_bstar": 5.1347142e-05,
        "meta_mean_motion_dot": 6.4e-07,
        "meta_mean_motion_ddot": 0,
        "tle_line1": "1 26818U 01023A   25349.82026792  .00000064  00000+0  51347-4 0  9993",
        "tle_line2": "2 26818  82.9272 357.4406 0032581 196.1914 337.5710 13.74142207229657"
      },
      "geometry": {
        "type": "Point",
        "coordinates": [
          -8.74799628099435,
          -38.30024659840296
        ]
      }
    },
    {
      "type": "Feature",
      "properties": {
        "norad_id": 27436,
        "name": "COSMOS 2389",
        "group": "musson",
        "lat": -2.5410677838886424,
        "lon": 124.4578222114844,
        "alt_km": 1007.7513756615954,
        "timestamp": "2025-12-16T13:52:37.793119+00:00",
        "meta_object_name": "COSMOS 2389",
        "meta_object_id": "2002-026A",
        "meta_epoch": "2025-12-15T23:20:17.340288",
        "meta_mean_motion": 13.75155042,
        "meta_eccentricity": 0.004755,
        "meta_inclination": 82.9505,
        "meta_ra_of_asc_node": 304.5915,
        "meta_arg_of_pericenter": 51.9667,
        "meta_mean_anomaly": 12.754,
        "meta_ephemeris_type": 0,
        "meta_classification_type": "U",
        "meta_norad_cat_id": 27436,
        "meta_element_set_no": 999,
        "meta_rev_at_epoch": 18193,
        "meta_bstar": 5.3997368e-05,
        "meta_mean_motion_dot": 6.8e-07,
        "meta_mean_motion_ddot": 0,
        "tle_line1": "1 27436U 02026A   25349.97242292  .00000068  00000+0  53997-4 0  9992",
        "tle_line2": "2 27436  82.9505 304.5915 0047550  51.9667  12.7540 13.75155042181939"
      },
      "geometry": {
        "type": "Point",
        "coordinates": [
          124.4578222114844,
          -2.5410677838886424
        ]
      }
    },
    {
      "type": "Feature",
      "properties": {
        "norad_id": 27818,
        "name": "COSMOS 2398",
        "group": "musson",
        "lat": 80.43259371338846,
        "lon": 42.61867065130137,
        "alt_km": 959.6421377185261,
        "timestamp": "2025-12-16T13:52:37.793131+00:00",
        "meta_object_name": "COSMOS 2398",
        "meta_object_id": "2003-023A",
        "meta_epoch": "2025-12-15T22:00:22.338144",
        "meta_mean_motion": 13.72386015,
        "meta_eccentricity": 0.0032675,
        "meta_inclination": 82.9484,
        "meta_ra_of_asc_node": 270.3571,
        "meta_arg_of_pericenter": 103.2951,
        "meta_mean_anomaly": 327.878,
        "meta_ephemeris_type": 0,
        "meta_classification_type": "U",
        "meta_norad_cat_id": 27818,
        "meta_element_set_no": 999,
        "meta_rev_at_epoch": 12860,
        "meta_bstar": 3.6432976e-05,
        "meta_mean_motion_dot": 4.9e-07,
        "meta_mean_motion_ddot": 0,
        "tle_line1": "1 27818U 03023A   25349.91692521  .00000049  00000+0  36433-4 0  9997",
        "tle_line2": "2 27818  82.9484 270.3571 0032675 103.2951 327.8780 13.72386015128600"
      },
      "geometry": {
        "type": "Point",
        "coordinates": [
          42.61867065130137,
          80.43259371338846
        ]
      }
    },
    {
      "type": "Feature",
      "properties": {
        "norad_id": 28380,
        "name": "COSMOS 2407",
        "group": "musson",
        "lat": -13.966890435267894,
        "lon": -151.71035963963297,
        "alt_km": 965.9013296193662,
        "timestamp": "2025-12-16T13:52:37.793142+00:00",
        "meta_object_name": "COSMOS 2407",
        "meta_object_id": "2004-028A",
        "meta_epoch": "2025-12-15T20:33:17.368128",
        "meta_mean_motion": 13.76313998,
        "meta_eccentricity": 0.00402117,
        "meta_inclination": 82.9602,
        "meta_ra_of_asc_node": 210.5852,
        "meta_arg_of_pericenter": 46.3771,
        "meta_mean_anomaly": 325.9261,
        "meta_ephemeris_type": 0,
        "meta_classification_type": "U",
        "meta_norad_cat_id": 28380,
        "meta_element_set_no": 999,
        "meta_rev_at_epoch": 7466,
        "meta_bstar": 6.3752134e-05,
        "meta_mean_motion_dot": 7.8e-07,
        "meta_mean_motion_ddot": 0,
        "tle_line1": "1 28380U 04028A   25349.85645102  .00000078  00000+0  63752-4 0  9990",
        "tle_line2": "2 28380  82.9602 210.5852 0040211  46.3771 325.9261 13.76313998 74660"
      },
      "geometry": {
        "type": "Point",
        "coordinates": [
          -151.71035963963297,
          -13.966890435267894
        ]
      }
    },
    {
      "type": "Feature",
      "properties": {
        "norad_id": 28521,
        "name": "COSMOS 2414",
        "group": "musson",
        "lat": 48.784436985537134,
        "lon": -170.11971589427986,
        "alt_km": 926.0198734004125,
        "timestamp": "2025-12-16T13:52:37.793153+00:00",
        "meta_object_name": "COSMOS 2414",
        "meta_object_id": "2005-002A",
        "meta_epoch": "2025-12-15T22:04:05.071296",
        "meta_mean_motion": 13.87903398,
        "meta_eccentricity": 0.00410678,
        "meta_inclination": 82.9489,
        "meta_ra_of_asc_node": 182.2554,
        "meta_arg_of_pericenter": 130.806,
        "meta_mean_anomaly": 229.6678,
        "meta_ephemeris_type": 0,
        "meta_classification_type": "U",
        "meta_norad_cat_id": 28521,
        "meta_element_set_no": 999,
        "meta_rev_at_epoch": 5839,
        "meta_bstar": 7.0644113e-05,
        "meta_mean_motion_dot": 1.01e-06,
        "meta_mean_motion_ddot": 0,
        "tle_line1": "1 28521U 05002A   25349.91950314  .00000101  00000+0  70644-4 0  9996",
        "tle_line2": "2 28521  82.9489 182.2554 0041067 130.8060 229.6678 13.87903398 58399"
      },
      "geometry": {
        "type": "Point",
        "coordinates": [
          -170.11971589427986,
          48.784436985537134
        ]
      }
    },
    {
      "type": "Feature",
      "properties": {
        "norad_id": 32052,
        "name": "COSMOS 2429",
        "group": "musson",
        "lat": 7.493501585829784,
        "lon": -18.592374848499986,
        "alt_km": 955.9203364921404,
        "timestamp": "2025-12-16T13:52:37.793164+00:00",
        "meta_object_name": "COSMOS 2429",
        "meta_object_id": "2007-038A",
        "meta_epoch": "2025-12-15T22:07:28.659072",
        "meta_mean_motion": 13.75149724,
        "meta_eccentricity": 0.00390712,
        "meta_inclination": 82.9804,
        "meta_ra_of_asc_node": 340.9627,
        "meta_arg_of_pericenter": 29.1624,
        "meta_mean_anomaly": 331.1702,
        "meta_ephemeris_type": 0,
        "meta_classification_type": "U",
        "meta_norad_cat_id": 32052,
        "meta_element_set_no": 999,
        "meta_rev_at_epoch": 91646,
        "meta_bstar": 6.7482628e-05,
        "meta_mean_motion_dot": 8e-07,
        "meta_mean_motion_ddot": 0,
        "tle_line1": "1 32052U 07038A   25349.92185948  .00000080  00000+0  67483-4 0  9998",
        "tle_line2": "2 32052  82.9804 340.9627 0039071  29.1624 331.1702 13.75149724916466"
      },
      "geometry": {
        "type": "Point",
        "coordinates": [
          -18.592374848499986,
          7.493501585829784
        ]
      }
    },
    {
      "type": "Feature",
      "properties": {
        "norad_id": 35635,
        "name": "COSMOS 2454",
        "group": "musson",
        "lat": 51.20204173292097,
        "lon": -23.112291670480037,
        "alt_km": 917.7764518005715,
        "timestamp": "2025-12-16T13:52:37.793174+00:00",
        "meta_object_name": "COSMOS 2454",
        "meta_object_id": "2009-039A",
        "meta_epoch": "2025-12-15T22:15:24.335136",
        "meta_mean_motion": 13.89929031,
        "meta_eccentricity": 0.00203829,
        "meta_inclination": 82.9554,
        "meta_ra_of_asc_node": 166.2285,
        "meta_arg_of_pericenter": 65.2403,
        "meta_mean_anomaly": 47.9084,
        "meta_ephemeris_type": 0,
        "meta_classification_type": "U",
        "meta_norad_cat_id": 35635,
        "meta_element_set_no": 999,
        "meta_rev_at_epoch": 83194,
        "meta_bstar": 6.0235159e-05,
        "meta_mean_motion_dot": 9e-07,
        "meta_mean_motion_ddot": 0,
        "tle_line1": "1 35635U 09039A   25349.92736499  .00000090  00000+0  60235-4 0  9993",
        "tle_line2": "2 35635  82.9554 166.2285 0020382  65.2403  47.9084 13.89929031831944"
      },
      "geometry": {
        "type": "Point",
        "coordinates": [
          -23.112291670480037,
          51.20204173292097
        ]
      }
    },
    {
      "type": "Feature",
      "properties": {
        "norad_id": 36519,
        "name": "COSMOS 2463",
        "group": "musson",
        "lat": -80.80371646262098,
        "lon": -25.84951744132412,
        "alt_km": 975.420060642593,
        "timestamp": "2025-12-16T13:52:37.793185+00:00",
        "meta_object_name": "COSMOS 2463",
        "meta_object_id": "2010-017A",
        "meta_epoch": "2025-12-15T19:52:32.898720",
        "meta_mean_motion": 13.71649378,
        "meta_eccentricity": 0.00347441,
        "meta_inclination": 82.961,
        "meta_ra_of_asc_node": 24.4431,
        "meta_arg_of_pericenter": 279.1449,
        "meta_mean_anomaly": 255.1525,
        "meta_ephemeris_type": 0,
        "meta_classification_type": "U",
        "meta_norad_cat_id": 36519,
        "meta_element_set_no": 999,
        "meta_rev_at_epoch": 78279,
        "meta_bstar": 5.1047986e-05,
        "meta_mean_motion_dot": 6.1e-07,
        "meta_mean_motion_ddot": 0,
        "tle_line1": "1 36519U 10017A   25349.82815855  .00000061  00000+0  51048-4 0  9996",
        "tle_line2": "2 36519  82.9610  24.4431 0034744 279.1449 255.1525 13.71649378782795"
      },
      "geometry": {
        "type": "Point",
        "coordinates": [
          -25.84951744132412,
          -80.80371646262098
        ]
      }
    }
  ]
}